[{"OBJECT_NAME":"STARLINK-33730","OBJECT_ID":"2025-069G","EPOCH":"2026-03-09T12:39:48.568608","MEAN_MOTION":15.30202885,"ECCENTRICITY":9.007e-5,"INCLINATION":53.1607,"RA_OF_ASC_NODE":142.9653,"ARG_OF_PERICENTER":146.1585,"MEAN_ANOMALY":213.9474,"EPHEMERIS_TYPE":0,"CLASSIFICATION_TYPE":"U","NORAD_CAT_ID":63439,"ELEMENT_SET_NO":999,"REV_AT_EPOCH":5338,"BSTAR":0.0010922317,"MEAN_MOTION_DOT":0.00032132,"MEAN_MOTION_DDOT":0},{"OBJECT_NAME":"GEOSCAN 4 (RS92S4)","OBJECT_ID":"2025-155S","EPOCH":"2026-03-09T21:50:07.724832","MEAN_MOTION":15.30369837,"ECCENTRICITY":0.00070968,"INCLINATION":97.4465,"RA_OF_ASC_NODE":37.7626,"ARG_OF_PERICENTER":154.7045,"MEAN_ANOMALY":205.4544,"EPHEMERIS_TYPE":0,"CLASSIFICATION_TYPE":"U","NORAD_CAT_ID":64892,"ELEMENT_SET_NO":999,"REV_AT_EPOCH":6562,"BSTAR":0.00068609503,"MEAN_MOTION_DOT":0.00020121,"MEAN_MOTION_DDOT":0}]
